QIANFAN-172             
1 69389U 26124H   26177.96895166  .00000112  00000+0  46046-4 0  9990
2 69389  88.9984   0.9237 0003388 135.0528 225.0936 14.19639737  3202
QIANFAN-173             
1 69390U 26124J   26177.96051083  .00000112  00000+0  45521-4 0  9991
2 69390  88.9984   0.9226 0003604 126.5296 233.6227 14.20511070  3209
QIANFAN-174             
1 69391U 26124K   26177.95495578  .00000134  00000+0  55472-4 0  9992
2 69391  88.9984   0.9217 0003854 132.1508 228.0011 14.20879771  3200
QIANFAN-175             
1 69392U 26124L   26177.95145340  .00000121  00000+0  48905-4 0  9991
2 69392  88.9984   0.9211 0004486 145.1620 214.9865 14.21341145  3207
QIANFAN-176             
1 69393U 26124M   26177.94643353  .00000120  00000+0  47946-4 0  9991
2 69393  88.9984   0.9204 0003429 148.2975 211.8423 14.21842454  3208
QIANFAN-177             
1 69394U 26124N   26177.93854674  .00000115  00000+0  44923-4 0  9997
2 69394  88.9984   0.9192 0004470 125.8654 234.2953 14.22731843  3204
QIANFAN-178             
1 69395U 26124P   26177.94230213  .00000122  00000+0  48531-4 0  9993
2 69395  88.9983   0.9197 0003799 134.9444 225.2056 14.22275473  3206
QIANFAN-179             
1 69396U 26124Q   26177.93463616  .00000121  00000+0  47422-4 0  9995
2 69396  88.9983   0.9184 0003790 131.1124 229.0396 14.23098522  3206
QIANFAN-180             
1 69397U 26124R   26177.93070339  .00000129  00000+0  50220-4 0  9990
2 69397  88.9984   0.9180 0004095 140.9006 219.2482 14.23620207  3208
QIANFAN-181             
1 69398U 26124S   26177.93156776  .00000107  00000+0  46454-4 0  9991
2 69398  88.9983   0.9367 0002944 106.0134 254.1379 14.16650447  3193
QIANFAN-182             
1 69399U 26124T   26177.90814461  .00000115  00000+0  48557-4 0  9996
2 69399  88.9984   0.9333 0003211 125.7229 234.4260 14.18739763  3190
QIANFAN-183             
1 69401U 26125A   26177.87677491  .00000347  00000+0  16693-3 0  9999
2 69401  88.9953 279.3532 0015298 144.0360 216.1861 14.16465562  3073
QIANFAN-184             
1 69402U 26125B   26177.93923916  .00000372  00000+0  17806-3 0  9998
2 69402  88.9954 279.3442 0016194 138.2158 222.0270 14.16885684  3083
QIANFAN-185             
1 69403U 26125C   26177.87353802  .00000359  00000+0  17429-3 0  9999
2 69403  88.9954 279.3528 0017019 138.9685 221.2787 14.16090404  3079
QIANFAN-186             
1 69404U 26125D   26177.93108748  .00000379  00000+0  17988-3 0  9996
2 69404  88.9954 279.3429 0015490 139.4940 220.7405 14.17436547  3086
QIANFAN-187             
1 69405U 26125E   26177.92326076  .00000384  00000+0  17898-3 0  9998
2 69405  88.9954 279.3416 0015998 140.5895 219.6462 14.18347252  3083
QIANFAN-188             
1 69406U 26125F   26177.91347306  .00000380  00000+0  17340-3 0  9995
2 69406  88.9954 279.3400 0015961 144.0720 216.1546 14.19439468  3080
QIANFAN-189             
1 69407U 26125G   26177.91742179  .00000381  00000+0  17649-3 0  9996
2 69407  88.9954 279.3408 0015217 141.4935 218.7343 14.18758481  3083
QIANFAN-190             
1 69408U 26125H   26177.91323316  .00000373  00000+0  17090-3 0  9996
2 69408  88.9955 279.3403 0015994 143.1143 217.1150 14.19221508  3087
QIANFAN-191             
1 69409U 26125J   26177.90429192  .00000398  00000+0  17972-3 0  9991
2 69409  88.9954 279.3387 0015403 141.9501 218.2780 14.20092848  3083
QIANFAN-192             
1 69410U 26125K   26177.89973608  .00000406  00000+0  18195-3 0  9995
2 69410  88.9955 279.3382 0016259 142.3173 217.9160 14.20518843  3087
QIANFAN-193             
1 69411U 26125L   26177.89402408  .00000409  00000+0  18224-3 0  9997
2 69411  88.9954 279.3373 0016149 142.6977 217.5339 14.20961408  3083
QIANFAN-194             
1 69412U 26125M   26177.89001446  .00000414  00000+0  18262-3 0  9993
2 69412  88.9954 279.3366 0015429 146.2107 214.0071 14.21403163  3075
QIANFAN-195             
1 69413U 26125N   26177.88626886  .00000415  00000+0  18185-3 0  9999
2 69413  88.9954 279.3361 0016633 144.9596 215.2693 14.21800509  3085
QIANFAN-196             
1 69414U 26125P   26177.88183502  .00000413  00000+0  17906-3 0  9991
2 69414  88.9955 279.3354 0016746 145.3928 214.8357 14.22295637  3081
QIANFAN-197             
1 69415U 26125Q   26177.87842150  .00000410  00000+0  17661-3 0  9997
2 69415  88.9954 279.3349 0015026 142.4236 217.8009 14.22740075  3072
QIANFAN-198             
1 69416U 26125R   26177.88265755  .00000407  00000+0  17741-3 0  9994
2 69416  88.9954 279.3355 0015340 141.8570 218.3710 14.22066772  3084
QIANFAN-199             
1 69417U 26125S   26177.87186151  .00000419  00000+0  17722-3 0  9998
2 69417  88.9954 279.3338 0017052 142.8848 217.3527 14.23630304  3081
QIANFAN-200             
1 69418U 26125T   26177.90798081  .00000394  00000+0  17935-3 0  9992
2 69418  88.9954 279.3393 0016094 140.8770 219.3587 14.19640415  3087
