OBJECT_NAME,OBJECT_ID,EPOCH,MEAN_MOTION,ECCENTRICITY,INCLINATION,RA_OF_ASC_NODE,ARG_OF_PERICENTER,MEAN_ANOMALY,EPHEMERIS_TYPE,CLASSIFICATION_TYPE,NORAD_CAT_ID,ELEMENT_SET_NO,REV_AT_EPOCH,BSTAR,MEAN_MOTION_DOT,MEAN_MOTION_DDOT
QIANFAN-172,2026-124H,2026-06-26T23:15:17.423424,14.19639737,.00033883,88.9984,0.9237,135.0528,225.0936,0,U,69389,999,320,.46045538E-4,.112E-5,0
QIANFAN-173,2026-124J,2026-06-26T23:03:08.135712,14.20511070,.00036047,88.9984,0.9226,126.5296,233.6227,0,U,69390,999,320,.45521033E-4,.112E-5,0
QIANFAN-174,2026-124K,2026-06-26T22:55:08.179392,14.20879771,.00038544,88.9984,0.9217,132.1508,228.0011,0,U,69391,999,320,.55472128E-4,.134E-5,0
QIANFAN-175,2026-124L,2026-06-26T22:50:05.573760,14.21341145,.00044869,88.9984,0.9211,145.1620,214.9865,0,U,69392,999,320,.48905208E-4,.121E-5,0
QIANFAN-176,2026-124M,2026-06-26T22:42:51.856992,14.21842454,.00034295,88.9984,0.9204,148.2975,211.8423,0,U,69393,999,320,.47946423E-4,.12E-5,0
QIANFAN-177,2026-124N,2026-06-26T22:31:30.438336,14.22731843,.00044706,88.9984,0.9192,125.8654,234.2953,0,U,69394,999,320,.44923186E-4,.115E-5,0
QIANFAN-178,2026-124P,2026-06-26T22:36:54.904032,14.22275473,.00037993,88.9983,0.9197,134.9444,225.2056,0,U,69395,999,320,.48531399E-4,.122E-5,0
QIANFAN-179,2026-124Q,2026-06-26T22:25:52.564224,14.23098522,.00037908,88.9983,0.9184,131.1124,229.0396,0,U,69396,999,320,.4742151E-4,.121E-5,0
QIANFAN-180,2026-124R,2026-06-26T22:20:12.772896,14.23620207,.00040958,88.9984,0.9180,140.9006,219.2482,0,U,69397,999,320,.5021997E-4,.129E-5,0
QIANFAN-181,2026-124S,2026-06-26T22:21:27.454464,14.16650447,.00029445,88.9983,0.9367,106.0134,254.1379,0,U,69398,999,319,.46453567E-4,.107E-5,0
QIANFAN-182,2026-124T,2026-06-26T21:47:43.694304,14.18739763,.00032112,88.9984,0.9333,125.7229,234.4260,0,U,69399,999,319,.48556647E-4,.115E-5,0
QIANFAN-183,2026-125A,2026-06-26T21:02:33.352224,14.16465562,.00152985,88.9953,279.3532,144.0360,216.1861,0,U,69401,999,307,.16692745E-3,.347E-5,0
QIANFAN-184,2026-125B,2026-06-26T22:32:30.263424,14.16885684,.00161947,88.9954,279.3442,138.2158,222.0270,0,U,69402,999,308,.17806423E-3,.372E-5,0
QIANFAN-185,2026-125C,2026-06-26T20:57:53.684928,14.16090404,.00170191,88.9954,279.3528,138.9685,221.2787,0,U,69403,999,307,.17428838E-3,.359E-5,0
QIANFAN-186,2026-125D,2026-06-26T22:20:45.958272,14.17436547,.00154902,88.9954,279.3429,139.4940,220.7405,0,U,69404,999,308,.17988428E-3,.379E-5,0
QIANFAN-187,2026-125E,2026-06-26T22:09:29.729664,14.18347252,.00159983,88.9954,279.3416,140.5895,219.6462,0,U,69405,999,308,.17897707E-3,.384E-5,0
QIANFAN-188,2026-125F,2026-06-26T21:55:24.072384,14.19439468,.00159616,88.9954,279.3400,144.0720,216.1546,0,U,69406,999,308,.17339904E-3,.38E-5,0
QIANFAN-189,2026-125G,2026-06-26T22:01:05.242656,14.18758481,.00152178,88.9954,279.3408,141.4935,218.7343,0,U,69407,999,308,.1764865E-3,.381E-5,0
QIANFAN-190,2026-125H,2026-06-26T21:55:03.345024,14.19221508,.00159947,88.9955,279.3403,143.1143,217.1150,0,U,69408,999,308,.1708975E-3,.373E-5,0
QIANFAN-191,2026-125J,2026-06-26T21:42:10.821888,14.20092848,.00154032,88.9954,279.3387,141.9501,218.2780,0,U,69409,999,308,.17972462E-3,.398E-5,0
QIANFAN-192,2026-125K,2026-06-26T21:35:37.197312,14.20518843,.00162594,88.9955,279.3382,142.3173,217.9160,0,U,69410,999,308,.18194903E-3,.406E-5,0
QIANFAN-193,2026-125L,2026-06-26T21:27:23.680512,14.20961408,.0016149,88.9954,279.3373,142.6977,217.5339,0,U,69411,999,308,.18224174E-3,.409E-5,0
QIANFAN-194,2026-125M,2026-06-26T21:21:37.249344,14.21403163,.00154292,88.9954,279.3366,146.2107,214.0071,0,U,69412,999,307,.18261711E-3,.414E-5,0
QIANFAN-195,2026-125N,2026-06-26T21:16:13.629504,14.21800509,.00166336,88.9954,279.3361,144.9596,215.2693,0,U,69413,999,308,.18184874E-3,.415E-5,0
QIANFAN-196,2026-125P,2026-06-26T21:09:50.545728,14.22295637,.00167461,88.9955,279.3354,145.3928,214.8357,0,U,69414,999,308,.17905598E-3,.413E-5,0
QIANFAN-197,2026-125Q,2026-06-26T21:04:55.617600,14.22740075,.00150263,88.9954,279.3349,142.4236,217.8009,0,U,69415,999,307,.1766053E-3,.41E-5,0
QIANFAN-198,2026-125R,2026-06-26T21:11:01.612320,14.22066772,.00153408,88.9954,279.3355,141.8570,218.3710,0,U,69416,999,308,.17740691E-3,.407E-5,0
QIANFAN-199,2026-125S,2026-06-26T20:55:28.834464,14.23630304,.00170522,88.9954,279.3338,142.8848,217.3527,0,U,69417,999,308,.17722429E-3,.419E-5,0
QIANFAN-200,2026-125T,2026-06-26T21:47:29.541984,14.19640415,.00160943,88.9954,279.3393,140.8770,219.3587,0,U,69418,999,308,.17935465E-3,.394E-5,0
